ORBCOMM FM20 [+]        
1 25416U 98046D   24045.19497224  .00002540  00000+0  93496-3 0  9992
2 25416  44.9955 332.6504 0001711 321.0992  38.9731 14.34883972334016
ORBCOMM FM16 [-]        
1 25417U 98046E   24045.48694982  .00003325  00000+0  11878-2 0  9990
2 25417  44.9951 327.6466 0004988 353.4334   6.6447 14.35742113334166
ORBCOMM FM15 [-]        
1 25418U 98046F   24044.52290760  .00003161  00000+0  11375-2 0  9991
2 25418  44.9986 336.0614 0004597 348.9035  11.1710 14.35481077333989
ORBCOMM FM14 [-]        
1 25419U 98046G   24044.92610337  .00003720  00000+0  13263-2 0  9991
2 25419  44.9979 333.3794 0003598 338.7815 131.9002 14.35623214333823
ORBCOMM FM13 [+]        
1 25420U 98046H   24044.90943588  .00002936  00000+0  10706-2 0  9995
2 25420  44.9990 337.8702 0005831 336.7528  23.3055 14.34980488332893
ORBCOMM FM21 [-]        
1 25475U 98053A   24044.78788624  .00002308  00000+0  85288-3 0  9998
2 25475  45.0095  62.6545 0002661 280.0395  80.0152 14.34952831326892
ORBCOMM FM22 [-]        
1 25476U 98053B   24044.72550391  .00002964  00000+0  10715-2 0  9991
2 25476  45.0083  60.5641 0004402 282.7010  77.3345 14.35401797326874
ORBCOMM FM23 [-]        
1 25477U 98053C   24045.30542195  .00002753  00000+0  10074-2 0  9994
2 25477  45.0089  62.6608 0003697 280.6825  79.3606 14.34973191327428
